PUBLIC_ID 255
  SHDB ?  ?    ? P      ? 20010101 0000  17.8800 GAU  1.00e-01 -1.00e+00 -1.00e+00 -1.00e+00
  KELB ?  ?    ? P      ? 20010101 0000  18.1500 GAU  1.00e-01 -1.00e+00 -1.00e+00 -1.00e+00
  KELB ?  ?    ? S      ? 20010101 0000  22.9900 GAU  1.00e-01 -1.00e+00 -1.00e+00 -1.00e+00
  TWKB ?  ?    ? P      ? 20010101 0000  18.2400 GAU  1.00e-01 -1.00e+00 -1.00e+00 -1.00e+00
  TWKB ?  ?    ? S      ? 20010101 0000  23.0400 GAU  1.00e-01 -1.00e+00 -1.00e+00 -1.00e+00
  MGCB ?  ?    ? P      ? 20010101 0000  18.2900 GAU  1.00e-01 -1.00e+00 -1.00e+00 -1.00e+00
  MGCB ?  ?    ? S      ? 20010101 0000  23.2100 GAU  1.00e-01 -1.00e+00 -1.00e+00 -1.00e+00
  BPCB ?  ?    ? S      ? 20010101 0000  23.4500 GAU  1.00e-01 -1.00e+00 -1.00e+00 -1.00e+00
  SSIB ?  ?    ? S      ? 20010101 0000  23.2800 GAU  1.00e-01 -1.00e+00 -1.00e+00 -1.00e+00
   PGC ?  ?    ? P      ? 20010101 0000  18.5100 GAU  1.00e-01 -1.00e+00 -1.00e+00 -1.00e+00
   PGC ?  ?    ? S      ? 20010101 0000  23.5700 GAU  1.00e-01 -1.00e+00 -1.00e+00 -1.00e+00
   LZB ?  ?    ? P      ? 20010101 0000  18.6300 GAU  1.00e-01 -1.00e+00 -1.00e+00 -1.00e+00
   LZB ?  ?    ? S      ? 20010101 0000  23.7400 GAU  1.00e-01 -1.00e+00 -1.00e+00 -1.00e+00
  KHVB ?  ?    ? S      ? 20010101 0000  24.3200 GAU  1.00e-01 -1.00e+00 -1.00e+00 -1.00e+00
  TSJB ?  ?    ? P      ? 20010101 0000  19.3300 GAU  1.00e-01 -1.00e+00 -1.00e+00 -1.00e+00
  SILB ?  ?    ? S      ? 20010101 0000  25.3300 GAU  1.00e-01 -1.00e+00 -1.00e+00 -1.00e+00
   SNB ?  ?    ? P      ? 20010101 0000  20.2500 GAU  1.00e-01 -1.00e+00 -1.00e+00 -1.00e+00
  SHVB ?  ?    ? S      ? 20010101 0000  26.1100 GAU  1.00e-01 -1.00e+00 -1.00e+00 -1.00e+00
  PHYB ?  ?    ? S      ? 20010101 0000  26.2300 GAU  1.00e-01 -1.00e+00 -1.00e+00 -1.00e+00
  TWBB ?  ?    ? P      ? 20010101 0000  19.9600 GAU  1.00e-01 -1.00e+00 -1.00e+00 -1.00e+00
   VGZ ?  ?    ? S      ? 20010101 0000  27.4100 GAU  1.00e-01 -1.00e+00 -1.00e+00 -1.00e+00
  JRBC ?  ?    ? S      ? 20010101 0000  27.7900 GAU  1.00e-01 -1.00e+00 -1.00e+00 -1.00e+00
  YOUB ?  ?    ? P      ? 20010101 0000  20.9000 GAU  1.00e-01 -1.00e+00 -1.00e+00 -1.00e+00
  NLLB ?  ?    ? S      ? 20010101 0000  29.7700 GAU  1.00e-01 -1.00e+00 -1.00e+00 -1.00e+00
   PFB ?  ?    ? P      ? 20010101 0000  24.0300 GAU  1.00e-01 -1.00e+00 -1.00e+00 -1.00e+00
