PUBLIC_ID 076
  JRBC ?  ?    ? S      ? 20010101 0000  18.4800 GAU  1.00e-01 -1.00e+00 -1.00e+00 -1.00e+00
  SOKB ?  ?    ? S      ? 20010101 0000  19.6600 GAU  1.00e-01 -1.00e+00 -1.00e+00 -1.00e+00
  GLBC ?  ?    ? P      ? 20010101 0000  15.4500 GAU  1.00e-01 -1.00e+00 -1.00e+00 -1.00e+00
  GLBC ?  ?    ? S      ? 20010101 0000  19.8900 GAU  1.00e-01 -1.00e+00 -1.00e+00 -1.00e+00
  TSJB ?  ?    ? S      ? 20010101 0000  21.2100 GAU  1.00e-01 -1.00e+00 -1.00e+00 -1.00e+00
  LCBC ?  ?    ? P      ? 20010101 0000  16.5500 GAU  1.00e-01 -1.00e+00 -1.00e+00 -1.00e+00
  LCBC ?  ?    ? S      ? 20010101 0000  21.4000 GAU  1.00e-01 -1.00e+00 -1.00e+00 -1.00e+00
  TWBB ?  ?    ? S      ? 20010101 0000  21.1900 GAU  1.00e-01 -1.00e+00 -1.00e+00 -1.00e+00
   LZB ?  ?    ? P      ? 20010101 0000  16.7700 GAU  1.00e-01 -1.00e+00 -1.00e+00 -1.00e+00
   LZB ?  ?    ? S      ? 20010101 0000  21.6800 GAU  1.00e-01 -1.00e+00 -1.00e+00 -1.00e+00
  TWKB ?  ?    ? P      ? 20010101 0000  17.3000 GAU  1.00e-01 -1.00e+00 -1.00e+00 -1.00e+00
  TWKB ?  ?    ? S      ? 20010101 0000  22.6200 GAU  1.00e-01 -1.00e+00 -1.00e+00 -1.00e+00
  MGCB ?  ?    ? P      ? 20010101 0000  17.3000 GAU  1.00e-01 -1.00e+00 -1.00e+00 -1.00e+00
  MGCB ?  ?    ? S      ? 20010101 0000  22.6400 GAU  1.00e-01 -1.00e+00 -1.00e+00 -1.00e+00
  TWGB ?  ?    ? S      ? 20010101 0000  22.8800 GAU  1.00e-01 -1.00e+00 -1.00e+00 -1.00e+00
  KHVB ?  ?    ? P      ? 20010101 0000  17.8700 GAU  1.00e-01 -1.00e+00 -1.00e+00 -1.00e+00
  SHVB ?  ?    ? S      ? 20010101 0000  23.9800 GAU  1.00e-01 -1.00e+00 -1.00e+00 -1.00e+00
  KELB ?  ?    ? P      ? 20010101 0000  18.2000 GAU  1.00e-01 -1.00e+00 -1.00e+00 -1.00e+00
  KELB ?  ?    ? S      ? 20010101 0000  24.2700 GAU  1.00e-01 -1.00e+00 -1.00e+00 -1.00e+00
   VGZ ?  ?    ? P      ? 20010101 0000  18.1000 GAU  1.00e-01 -1.00e+00 -1.00e+00 -1.00e+00
   VGZ ?  ?    ? S      ? 20010101 0000  24.3300 GAU  1.00e-01 -1.00e+00 -1.00e+00 -1.00e+00
   PFB ?  ?    ? P      ? 20010101 0000  18.6700 GAU  1.00e-01 -1.00e+00 -1.00e+00 -1.00e+00
   PFB ?  ?    ? S      ? 20010101 0000  24.8600 GAU  1.00e-01 -1.00e+00 -1.00e+00 -1.00e+00
   PGC ?  ?    ? P      ? 20010101 0000  18.7900 GAU  1.00e-01 -1.00e+00 -1.00e+00 -1.00e+00
   PGC ?  ?    ? S      ? 20010101 0000  25.3500 GAU  1.00e-01 -1.00e+00 -1.00e+00 -1.00e+00
  SILB ?  ?    ? P      ? 20010101 0000  19.6800 GAU  1.00e-01 -1.00e+00 -1.00e+00 -1.00e+00
  SILB ?  ?    ? S      ? 20010101 0000  26.7500 GAU  1.00e-01 -1.00e+00 -1.00e+00 -1.00e+00
  SSIB ?  ?    ? P      ? 20010101 0000  20.3200 GAU  1.00e-01 -1.00e+00 -1.00e+00 -1.00e+00
  YOUB ?  ?    ? S      ? 20010101 0000  29.1300 GAU  1.00e-01 -1.00e+00 -1.00e+00 -1.00e+00
   SNB ?  ?    ? P      ? 20010101 0000  22.4500 GAU  1.00e-01 -1.00e+00 -1.00e+00 -1.00e+00
