PUBLIC_ID 125
  SOKB ?  ?    ? P      ? 20010101 0000  18.0000 GAU  1.00e-01 -1.00e+00 -1.00e+00 -1.00e+00
  SOKB ?  ?    ? S      ? 20010101 0000  22.2200 GAU  1.00e-01 -1.00e+00 -1.00e+00 -1.00e+00
  GLBC ?  ?    ? S      ? 20010101 0000  22.2400 GAU  1.00e-01 -1.00e+00 -1.00e+00 -1.00e+00
   LZB ?  ?    ? P      ? 20010101 0000  18.3100 GAU  1.00e-01 -1.00e+00 -1.00e+00 -1.00e+00
   LZB ?  ?    ? S      ? 20010101 0000  22.4800 GAU  1.00e-01 -1.00e+00 -1.00e+00 -1.00e+00
  MGCB ?  ?    ? S      ? 20010101 0000  22.4800 GAU  1.00e-01 -1.00e+00 -1.00e+00 -1.00e+00
  TWKB ?  ?    ? S      ? 20010101 0000  22.5900 GAU  1.00e-01 -1.00e+00 -1.00e+00 -1.00e+00
  JRBC ?  ?    ? P      ? 20010101 0000  18.5200 GAU  1.00e-01 -1.00e+00 -1.00e+00 -1.00e+00
  KHVB ?  ?    ? P      ? 20010101 0000  18.5200 GAU  1.00e-01 -1.00e+00 -1.00e+00 -1.00e+00
  KHVB ?  ?    ? S      ? 20010101 0000  23.1900 GAU  1.00e-01 -1.00e+00 -1.00e+00 -1.00e+00
  KELB ?  ?    ? P      ? 20010101 0000  18.6400 GAU  1.00e-01 -1.00e+00 -1.00e+00 -1.00e+00
  KELB ?  ?    ? S      ? 20010101 0000  23.3300 GAU  1.00e-01 -1.00e+00 -1.00e+00 -1.00e+00
  TSJB ?  ?    ? P      ? 20010101 0000  18.8800 GAU  1.00e-01 -1.00e+00 -1.00e+00 -1.00e+00
  TSJB ?  ?    ? S      ? 20010101 0000  23.5400 GAU  1.00e-01 -1.00e+00 -1.00e+00 -1.00e+00
  SHVB ?  ?    ? S      ? 20010101 0000  24.0400 GAU  1.00e-01 -1.00e+00 -1.00e+00 -1.00e+00
   PGC ?  ?    ? P      ? 20010101 0000  19.0200 GAU  1.00e-01 -1.00e+00 -1.00e+00 -1.00e+00
   PGC ?  ?    ? S      ? 20010101 0000  24.0100 GAU  1.00e-01 -1.00e+00 -1.00e+00 -1.00e+00
  TWBB ?  ?    ? P      ? 20010101 0000  19.3300 GAU  1.00e-01 -1.00e+00 -1.00e+00 -1.00e+00
  TWBB ?  ?    ? S      ? 20010101 0000  24.3000 GAU  1.00e-01 -1.00e+00 -1.00e+00 -1.00e+00
   VGZ ?  ?    ? S      ? 20010101 0000  24.6800 GAU  1.00e-01 -1.00e+00 -1.00e+00 -1.00e+00
  SILB ?  ?    ? P      ? 20010101 0000  19.8700 GAU  1.00e-01 -1.00e+00 -1.00e+00 -1.00e+00
  SILB ?  ?    ? S      ? 20010101 0000  25.3600 GAU  1.00e-01 -1.00e+00 -1.00e+00 -1.00e+00
  SSIB ?  ?    ? P      ? 20010101 0000  20.2300 GAU  1.00e-01 -1.00e+00 -1.00e+00 -1.00e+00
  SSIB ?  ?    ? S      ? 20010101 0000  25.9600 GAU  1.00e-01 -1.00e+00 -1.00e+00 -1.00e+00
  LCBC ?  ?    ? P      ? 20010101 0000  20.1600 GAU  1.00e-01 -1.00e+00 -1.00e+00 -1.00e+00
  TWGB ?  ?    ? P      ? 20010101 0000  20.5100 GAU  1.00e-01 -1.00e+00 -1.00e+00 -1.00e+00
  GOWB ?  ?    ? P      ? 20010101 0000  21.6000 GAU  1.00e-01 -1.00e+00 -1.00e+00 -1.00e+00
  GOWB ?  ?    ? S      ? 20010101 0000  28.3500 GAU  1.00e-01 -1.00e+00 -1.00e+00 -1.00e+00
   SNB ?  ?    ? P      ? 20010101 0000  22.2900 GAU  1.00e-01 -1.00e+00 -1.00e+00 -1.00e+00
  YOUB ?  ?    ? P      ? 20010101 0000  22.9500 GAU  1.00e-01 -1.00e+00 -1.00e+00 -1.00e+00
  YOUB ?  ?    ? S      ? 20010101 0000  30.6400 GAU  1.00e-01 -1.00e+00 -1.00e+00 -1.00e+00
