PUBLIC_ID 063
  TSJB ?  ?    ? S      ? 20010101 0000  21.2300 GAU  1.00e-01 -1.00e+00 -1.00e+00 -1.00e+00
   LZB ?  ?    ? S      ? 20010101 0000  22.6200 GAU  1.00e-01 -1.00e+00 -1.00e+00 -1.00e+00
  SOKB ?  ?    ? S      ? 20010101 0000  25.7100 GAU  1.00e-01 -1.00e+00 -1.00e+00 -1.00e+00
  GLBC ?  ?    ? S      ? 20010101 0000  25.7500 GAU  1.00e-01 -1.00e+00 -1.00e+00 -1.00e+00
