PUBLIC_ID 287
  TWGB ?  ?    ? P      ? 20010101 0000  25.5000 GAU  1.00e-01 -1.00e+00 -1.00e+00 -1.00e+00
  TWGB ?  ?    ? S      ? 20010101 0000  28.9800 GAU  1.00e-01 -1.00e+00 -1.00e+00 -1.00e+00
  TWBB ?  ?    ? P      ? 20010101 0000  25.4600 GAU  1.00e-01 -1.00e+00 -1.00e+00 -1.00e+00
  TWBB ?  ?    ? S      ? 20010101 0000  29.0200 GAU  1.00e-01 -1.00e+00 -1.00e+00 -1.00e+00
  LCBC ?  ?    ? P      ? 20010101 0000  25.6500 GAU  1.00e-01 -1.00e+00 -1.00e+00 -1.00e+00
  LCBC ?  ?    ? S      ? 20010101 0000  29.5700 GAU  1.00e-01 -1.00e+00 -1.00e+00 -1.00e+00
  TSJB ?  ?    ? S      ? 20010101 0000  29.8900 GAU  1.00e-01 -1.00e+00 -1.00e+00 -1.00e+00
   PFB ?  ?    ? P      ? 20010101 0000  26.1400 GAU  1.00e-01 -1.00e+00 -1.00e+00 -1.00e+00
  JRBC ?  ?    ? S      ? 20010101 0000  31.6700 GAU  1.00e-01 -1.00e+00 -1.00e+00 -1.00e+00
   LZB ?  ?    ? P      ? 20010101 0000  26.8600 GAU  1.00e-01 -1.00e+00 -1.00e+00 -1.00e+00
   LZB ?  ?    ? S      ? 20010101 0000  31.6500 GAU  1.00e-01 -1.00e+00 -1.00e+00 -1.00e+00
  TWKB ?  ?    ? P      ? 20010101 0000  27.5200 GAU  1.00e-01 -1.00e+00 -1.00e+00 -1.00e+00
  TWKB ?  ?    ? S      ? 20010101 0000  33.0300 GAU  1.00e-01 -1.00e+00 -1.00e+00 -1.00e+00
  YOUB ?  ?    ? S      ? 20010101 0000  32.9700 GAU  1.00e-01 -1.00e+00 -1.00e+00 -1.00e+00
  MGCB ?  ?    ? S      ? 20010101 0000  33.5400 GAU  1.00e-01 -1.00e+00 -1.00e+00 -1.00e+00
  SOKB ?  ?    ? S      ? 20010101 0000  34.7000 GAU  1.00e-01 -1.00e+00 -1.00e+00 -1.00e+00
  KELB ?  ?    ? S      ? 20010101 0000  35.5300 GAU  1.00e-01 -1.00e+00 -1.00e+00 -1.00e+00
  SHDB ?  ?    ? P      ? 20010101 0000  28.9600 GAU  1.00e-01 -1.00e+00 -1.00e+00 -1.00e+00
  SHDB ?  ?    ? S      ? 20010101 0000  35.5100 GAU  1.00e-01 -1.00e+00 -1.00e+00 -1.00e+00
  BPCB ?  ?    ? P      ? 20010101 0000  29.5700 GAU  1.00e-01 -1.00e+00 -1.00e+00 -1.00e+00
  BPCB ?  ?    ? S      ? 20010101 0000  36.8000 GAU  1.00e-01 -1.00e+00 -1.00e+00 -1.00e+00
   PGC ?  ?    ? P      ? 20010101 0000  30.0800 GAU  1.00e-01 -1.00e+00 -1.00e+00 -1.00e+00
   PGC ?  ?    ? S      ? 20010101 0000  37.4800 GAU  1.00e-01 -1.00e+00 -1.00e+00 -1.00e+00
   MGB ?  ?    ? S      ? 20010101 0000  38.1000 GAU  1.00e-01 -1.00e+00 -1.00e+00 -1.00e+00
  PHYB ?  ?    ? S      ? 20010101 0000  38.7100 GAU  1.00e-01 -1.00e+00 -1.00e+00 -1.00e+00
  SSIB ?  ?    ? P      ? 20010101 0000  30.9900 GAU  1.00e-01 -1.00e+00 -1.00e+00 -1.00e+00
  SSIB ?  ?    ? S      ? 20010101 0000  39.0500 GAU  1.00e-01 -1.00e+00 -1.00e+00 -1.00e+00
  SILB ?  ?    ? P      ? 20010101 0000  31.6700 GAU  1.00e-01 -1.00e+00 -1.00e+00 -1.00e+00
  SILB ?  ?    ? S      ? 20010101 0000  40.1600 GAU  1.00e-01 -1.00e+00 -1.00e+00 -1.00e+00
  GOWB ?  ?    ? P      ? 20010101 0000  33.0700 GAU  1.00e-01 -1.00e+00 -1.00e+00 -1.00e+00
   SNB ?  ?    ? P      ? 20010101 0000  33.6500 GAU  1.00e-01 -1.00e+00 -1.00e+00 -1.00e+00
  B927 ?  ?    ? S      ? 20010101 0000  44.4600 GAU  1.00e-01 -1.00e+00 -1.00e+00 -1.00e+00
