PUBLIC_ID 264
   VGZ ?  ?    ? P      ? 20010101 0000  22.0200 GAU  1.00e-01 -1.00e+00 -1.00e+00 -1.00e+00
   VGZ ?  ?    ? S      ? 20010101 0000  26.2900 GAU  1.00e-01 -1.00e+00 -1.00e+00 -1.00e+00
  GLBC ?  ?    ? S      ? 20010101 0000  26.3700 GAU  1.00e-01 -1.00e+00 -1.00e+00 -1.00e+00
  SOKB ?  ?    ? S      ? 20010101 0000  26.6900 GAU  1.00e-01 -1.00e+00 -1.00e+00 -1.00e+00
  SHVB ?  ?    ? P      ? 20010101 0000  22.2800 GAU  1.00e-01 -1.00e+00 -1.00e+00 -1.00e+00
  SHVB ?  ?    ? S      ? 20010101 0000  26.8000 GAU  1.00e-01 -1.00e+00 -1.00e+00 -1.00e+00
  KHVB ?  ?    ? S      ? 20010101 0000  28.2000 GAU  1.00e-01 -1.00e+00 -1.00e+00 -1.00e+00
  SILB ?  ?    ? P      ? 20010101 0000  23.8500 GAU  1.00e-01 -1.00e+00 -1.00e+00 -1.00e+00
  SILB ?  ?    ? S      ? 20010101 0000  29.2300 GAU  1.00e-01 -1.00e+00 -1.00e+00 -1.00e+00
   PGC ?  ?    ? P      ? 20010101 0000  24.1700 GAU  1.00e-01 -1.00e+00 -1.00e+00 -1.00e+00
   PGC ?  ?    ? S      ? 20010101 0000  29.7900 GAU  1.00e-01 -1.00e+00 -1.00e+00 -1.00e+00
  JRBC ?  ?    ? P      ? 20010101 0000  24.2300 GAU  1.00e-01 -1.00e+00 -1.00e+00 -1.00e+00
  JRBC ?  ?    ? S      ? 20010101 0000  30.0400 GAU  1.00e-01 -1.00e+00 -1.00e+00 -1.00e+00
  MGCB ?  ?    ? S      ? 20010101 0000  29.9800 GAU  1.00e-01 -1.00e+00 -1.00e+00 -1.00e+00
  KELB ?  ?    ? P      ? 20010101 0000  24.3600 GAU  1.00e-01 -1.00e+00 -1.00e+00 -1.00e+00
  KELB ?  ?    ? S      ? 20010101 0000  30.1900 GAU  1.00e-01 -1.00e+00 -1.00e+00 -1.00e+00
  TWKB ?  ?    ? S      ? 20010101 0000  30.6500 GAU  1.00e-01 -1.00e+00 -1.00e+00 -1.00e+00
   LZB ?  ?    ? S      ? 20010101 0000  31.0200 GAU  1.00e-01 -1.00e+00 -1.00e+00 -1.00e+00
  SSIB ?  ?    ? P      ? 20010101 0000  25.5200 GAU  1.00e-01 -1.00e+00 -1.00e+00 -1.00e+00
  SSIB ?  ?    ? S      ? 20010101 0000  32.1400 GAU  1.00e-01 -1.00e+00 -1.00e+00 -1.00e+00
  TSJB ?  ?    ? P      ? 20010101 0000  25.7800 GAU  1.00e-01 -1.00e+00 -1.00e+00 -1.00e+00
  TSJB ?  ?    ? S      ? 20010101 0000  32.5400 GAU  1.00e-01 -1.00e+00 -1.00e+00 -1.00e+00
  GOWB ?  ?    ? P      ? 20010101 0000  25.9100 GAU  1.00e-01 -1.00e+00 -1.00e+00 -1.00e+00
  GOWB ?  ?    ? S      ? 20010101 0000  32.8600 GAU  1.00e-01 -1.00e+00 -1.00e+00 -1.00e+00
  SHDB ?  ?    ? S      ? 20010101 0000  33.3100 GAU  1.00e-01 -1.00e+00 -1.00e+00 -1.00e+00
   SNB ?  ?    ? P      ? 20010101 0000  26.6900 GAU  1.00e-01 -1.00e+00 -1.00e+00 -1.00e+00
   SNB ?  ?    ? S      ? 20010101 0000  34.2600 GAU  1.00e-01 -1.00e+00 -1.00e+00 -1.00e+00
  TWBB ?  ?    ? P      ? 20010101 0000  26.3100 GAU  1.00e-01 -1.00e+00 -1.00e+00 -1.00e+00
  TWBB ?  ?    ? S      ? 20010101 0000  33.5400 GAU  1.00e-01 -1.00e+00 -1.00e+00 -1.00e+00
  BPCB ?  ?    ? S      ? 20010101 0000  36.8900 GAU  1.00e-01 -1.00e+00 -1.00e+00 -1.00e+00
