PUBLIC_ID 005
  SOKB ?  ?    ? P      ? 20010101 0000  18.4900 GAU  1.00e-01 -1.00e+00 -1.00e+00 -1.00e+00
  SOKB ?  ?    ? S      ? 20010101 0000  22.0700 GAU  1.00e-01 -1.00e+00 -1.00e+00 -1.00e+00
   LZB ?  ?    ? S      ? 20010101 0000  22.2900 GAU  1.00e-01 -1.00e+00 -1.00e+00 -1.00e+00
  GLBC ?  ?    ? P      ? 20010101 0000  18.1600 GAU  1.00e-01 -1.00e+00 -1.00e+00 -1.00e+00
  GLBC ?  ?    ? S      ? 20010101 0000  21.7100 GAU  1.00e-01 -1.00e+00 -1.00e+00 -1.00e+00
  TWKB ?  ?    ? P      ? 20010101 0000  18.2900 GAU  1.00e-01 -1.00e+00 -1.00e+00 -1.00e+00
  TWKB ?  ?    ? S      ? 20010101 0000  22.6700 GAU  1.00e-01 -1.00e+00 -1.00e+00 -1.00e+00
  MGCB ?  ?    ? P      ? 20010101 0000  18.2700 GAU  1.00e-01 -1.00e+00 -1.00e+00 -1.00e+00
  MGCB ?  ?    ? S      ? 20010101 0000  22.5700 GAU  1.00e-01 -1.00e+00 -1.00e+00 -1.00e+00
  TSJB ?  ?    ? P      ? 20010101 0000  18.4900 GAU  1.00e-01 -1.00e+00 -1.00e+00 -1.00e+00
  TSJB ?  ?    ? S      ? 20010101 0000  22.8200 GAU  1.00e-01 -1.00e+00 -1.00e+00 -1.00e+00
  TWBB ?  ?    ? P      ? 20010101 0000  18.8100 GAU  1.00e-01 -1.00e+00 -1.00e+00 -1.00e+00
  TWBB ?  ?    ? S      ? 20010101 0000  23.4400 GAU  1.00e-01 -1.00e+00 -1.00e+00 -1.00e+00
  KELB ?  ?    ? P      ? 20010101 0000  18.8900 GAU  1.00e-01 -1.00e+00 -1.00e+00 -1.00e+00
  KELB ?  ?    ? S      ? 20010101 0000  23.7200 GAU  1.00e-01 -1.00e+00 -1.00e+00 -1.00e+00
  KHVB ?  ?    ? P      ? 20010101 0000  18.8300 GAU  1.00e-01 -1.00e+00 -1.00e+00 -1.00e+00
  KHVB ?  ?    ? S      ? 20010101 0000  23.7000 GAU  1.00e-01 -1.00e+00 -1.00e+00 -1.00e+00
   PGC ?  ?    ? P      ? 20010101 0000  19.4100 GAU  1.00e-01 -1.00e+00 -1.00e+00 -1.00e+00
   PGC ?  ?    ? S      ? 20010101 0000  24.6500 GAU  1.00e-01 -1.00e+00 -1.00e+00 -1.00e+00
  LCBC ?  ?    ? P      ? 20010101 0000  19.5100 GAU  1.00e-01 -1.00e+00 -1.00e+00 -1.00e+00
  LCBC ?  ?    ? S      ? 20010101 0000  24.8100 GAU  1.00e-01 -1.00e+00 -1.00e+00 -1.00e+00
  TWGB ?  ?    ? P      ? 20010101 0000  19.9000 GAU  1.00e-01 -1.00e+00 -1.00e+00 -1.00e+00
  TWGB ?  ?    ? S      ? 20010101 0000  25.3900 GAU  1.00e-01 -1.00e+00 -1.00e+00 -1.00e+00
  SILB ?  ?    ? P      ? 20010101 0000  20.3400 GAU  1.00e-01 -1.00e+00 -1.00e+00 -1.00e+00
  SILB ?  ?    ? S      ? 20010101 0000  26.1600 GAU  1.00e-01 -1.00e+00 -1.00e+00 -1.00e+00
  SSIB ?  ?    ? P      ? 20010101 0000  20.6200 GAU  1.00e-01 -1.00e+00 -1.00e+00 -1.00e+00
   PFB ?  ?    ? P      ? 20010101 0000  21.2900 GAU  1.00e-01 -1.00e+00 -1.00e+00 -1.00e+00
   SNB ?  ?    ? P      ? 20010101 0000  22.8400 GAU  1.00e-01 -1.00e+00 -1.00e+00 -1.00e+00
