PUBLIC_ID 019
  SOKB ?  ?    ? S      ? 20010101 0000  20.0800 GAU  1.00e-01 -1.00e+00 -1.00e+00 -1.00e+00
  GLBC ?  ?    ? S      ? 20010101 0000  19.9600 GAU  1.00e-01 -1.00e+00 -1.00e+00 -1.00e+00
   LZB ?  ?    ? P      ? 20010101 0000  17.7400 GAU  1.00e-01 -1.00e+00 -1.00e+00 -1.00e+00
   LZB ?  ?    ? S      ? 20010101 0000  22.3300 GAU  1.00e-01 -1.00e+00 -1.00e+00 -1.00e+00
  MGCB ?  ?    ? P      ? 20010101 0000  17.7000 GAU  1.00e-01 -1.00e+00 -1.00e+00 -1.00e+00
  MGCB ?  ?    ? S      ? 20010101 0000  22.3900 GAU  1.00e-01 -1.00e+00 -1.00e+00 -1.00e+00
  SHVB ?  ?    ? P      ? 20010101 0000  17.7000 GAU  1.00e-01 -1.00e+00 -1.00e+00 -1.00e+00
  SHVB ?  ?    ? S      ? 20010101 0000  22.5100 GAU  1.00e-01 -1.00e+00 -1.00e+00 -1.00e+00
  KHVB ?  ?    ? P      ? 20010101 0000  17.7000 GAU  1.00e-01 -1.00e+00 -1.00e+00 -1.00e+00
  KHVB ?  ?    ? S      ? 20010101 0000  22.4900 GAU  1.00e-01 -1.00e+00 -1.00e+00 -1.00e+00
  TWKB ?  ?    ? P      ? 20010101 0000  17.8600 GAU  1.00e-01 -1.00e+00 -1.00e+00 -1.00e+00
  TWKB ?  ?    ? S      ? 20010101 0000  22.6300 GAU  1.00e-01 -1.00e+00 -1.00e+00 -1.00e+00
   VGZ ?  ?    ? P      ? 20010101 0000  17.8800 GAU  1.00e-01 -1.00e+00 -1.00e+00 -1.00e+00
   VGZ ?  ?    ? S      ? 20010101 0000  22.9000 GAU  1.00e-01 -1.00e+00 -1.00e+00 -1.00e+00
  TSJB ?  ?    ? S      ? 20010101 0000  23.1000 GAU  1.00e-01 -1.00e+00 -1.00e+00 -1.00e+00
  KELB ?  ?    ? P      ? 20010101 0000  18.2200 GAU  1.00e-01 -1.00e+00 -1.00e+00 -1.00e+00
  KELB ?  ?    ? S      ? 20010101 0000  23.3800 GAU  1.00e-01 -1.00e+00 -1.00e+00 -1.00e+00
  TWBB ?  ?    ? P      ? 20010101 0000  18.6100 GAU  1.00e-01 -1.00e+00 -1.00e+00 -1.00e+00
  TWBB ?  ?    ? S      ? 20010101 0000  23.7000 GAU  1.00e-01 -1.00e+00 -1.00e+00 -1.00e+00
   PGC ?  ?    ? P      ? 20010101 0000  18.5500 GAU  1.00e-01 -1.00e+00 -1.00e+00 -1.00e+00
   PGC ?  ?    ? S      ? 20010101 0000  23.8600 GAU  1.00e-01 -1.00e+00 -1.00e+00 -1.00e+00
  SILB ?  ?    ? P      ? 20010101 0000  19.1500 GAU  1.00e-01 -1.00e+00 -1.00e+00 -1.00e+00
  SILB ?  ?    ? S      ? 20010101 0000  24.8300 GAU  1.00e-01 -1.00e+00 -1.00e+00 -1.00e+00
  LCBC ?  ?    ? P      ? 20010101 0000  19.1700 GAU  1.00e-01 -1.00e+00 -1.00e+00 -1.00e+00
  LCBC ?  ?    ? S      ? 20010101 0000  24.8700 GAU  1.00e-01 -1.00e+00 -1.00e+00 -1.00e+00
  TWGB ?  ?    ? S      ? 20010101 0000  25.9800 GAU  1.00e-01 -1.00e+00 -1.00e+00 -1.00e+00
  SSIB ?  ?    ? P      ? 20010101 0000  19.9600 GAU  1.00e-01 -1.00e+00 -1.00e+00 -1.00e+00
  SSIB ?  ?    ? S      ? 20010101 0000  26.3400 GAU  1.00e-01 -1.00e+00 -1.00e+00 -1.00e+00
   PFB ?  ?    ? P      ? 20010101 0000  21.1400 GAU  1.00e-01 -1.00e+00 -1.00e+00 -1.00e+00
   SNB ?  ?    ? P      ? 20010101 0000  21.9300 GAU  1.00e-01 -1.00e+00 -1.00e+00 -1.00e+00
