PUBLIC_ID 113
  TWGB ?  ?    ? P      ? 20010101 0000  14.5500 GAU  1.00e-01 -1.00e+00 -1.00e+00 -1.00e+00
  TWGB ?  ?    ? S      ? 20010101 0000  18.2600 GAU  1.00e-01 -1.00e+00 -1.00e+00 -1.00e+00
   PFB ?  ?    ? P      ? 20010101 0000  14.7600 GAU  1.00e-01 -1.00e+00 -1.00e+00 -1.00e+00
  LCBC ?  ?    ? P      ? 20010101 0000  14.8600 GAU  1.00e-01 -1.00e+00 -1.00e+00 -1.00e+00
  LCBC ?  ?    ? S      ? 20010101 0000  19.0700 GAU  1.00e-01 -1.00e+00 -1.00e+00 -1.00e+00
  TSJB ?  ?    ? S      ? 20010101 0000  19.6400 GAU  1.00e-01 -1.00e+00 -1.00e+00 -1.00e+00
  YOUB ?  ?    ? S      ? 20010101 0000  21.2700 GAU  1.00e-01 -1.00e+00 -1.00e+00 -1.00e+00
   LZB ?  ?    ? P      ? 20010101 0000  16.3900 GAU  1.00e-01 -1.00e+00 -1.00e+00 -1.00e+00
  JRBC ?  ?    ? S      ? 20010101 0000  21.7400 GAU  1.00e-01 -1.00e+00 -1.00e+00 -1.00e+00
  TWKB ?  ?    ? P      ? 20010101 0000  16.9400 GAU  1.00e-01 -1.00e+00 -1.00e+00 -1.00e+00
  TWKB ?  ?    ? S      ? 20010101 0000  22.8300 GAU  1.00e-01 -1.00e+00 -1.00e+00 -1.00e+00
  MGCB ?  ?    ? P      ? 20010101 0000  17.4100 GAU  1.00e-01 -1.00e+00 -1.00e+00 -1.00e+00
  SOKB ?  ?    ? S      ? 20010101 0000  24.8200 GAU  1.00e-01 -1.00e+00 -1.00e+00 -1.00e+00
  KELB ?  ?    ? P      ? 20010101 0000  18.3600 GAU  1.00e-01 -1.00e+00 -1.00e+00 -1.00e+00
  KELB ?  ?    ? S      ? 20010101 0000  25.3900 GAU  1.00e-01 -1.00e+00 -1.00e+00 -1.00e+00
  GLBC ?  ?    ? S      ? 20010101 0000  24.9100 GAU  1.00e-01 -1.00e+00 -1.00e+00 -1.00e+00
  KHVB ?  ?    ? S      ? 20010101 0000  27.1400 GAU  1.00e-01 -1.00e+00 -1.00e+00 -1.00e+00
   PGC ?  ?    ? P      ? 20010101 0000  19.5200 GAU  1.00e-01 -1.00e+00 -1.00e+00 -1.00e+00
   PGC ?  ?    ? S      ? 20010101 0000  27.4000 GAU  1.00e-01 -1.00e+00 -1.00e+00 -1.00e+00
